DMSP 5D-3 F16 (USA 172) 
1 28054U 03048A   26165.97181825  .00000013  00000+0  30527-4 0  9999
2 28054  98.9891 189.7855 0007658 145.9985 275.3653 14.14483014169170
METEOSAT-9 (MSG-2)      
1 28912U 05049B   26165.95824633  .00000122  00000+0  00000+0 0  9993
2 28912   9.3563  54.1897 0001585 342.1562 257.5139  1.00271050  6976
DMSP 5D-3 F17 (USA 191) 
1 29522U 06050A   26165.97764579  .00000037  00000+0  41484-4 0  9999
2 29522  98.7378 172.5929 0011216  65.1738 295.0601 14.14992881 12115
FENGYUN 3A              
1 32958U 08026A   26165.86233873  .00000055  00000+0  46421-4 0  9993
2 32958  98.6883 106.7389 0009498 129.7141 230.4874 14.19570688935071
GOES 14                 
1 35491U 09033A   26165.85963863 -.00000278  00000+0  00000+0 0  9991
2 35491   1.6841  83.0685 0001705  10.6310 262.0958  1.00111502  6568
DMSP 5D-3 F18 (USA 210) 
1 35951U 09057A   26165.94887824  .00000193  00000+0  12281-3 0  9993
2 35951  98.9037 146.7228 0009865 256.6400 103.3673 14.14895563859272
EWS-G2 (GOES 15)        
1 36411U 10008A   26165.87205795  .00000022  00000+0  00000+0 0  9999
2 36411   1.2714  82.8923 0005368  42.0423 155.8635  1.00275631 59610
COMS 1                  
1 36744U 10032A   26165.84767858  .00000022  00000+0  00000+0 0  9995
2 36744   4.7989  75.3814 0011440  11.7083 204.0035  0.99162585 51062
FENGYUN 3B              
1 37214U 10059A   26165.97175961  .00000222  00000+0  13836-3 0  9996
2 37214  98.9625 211.9767 0021816 190.4011 239.3684 14.14842005807116
SUOMI NPP               
1 37849U 11061A   26165.94401692  .00000056  00000+0  47604-4 0  9990
2 37849  98.7954 106.8354 0001662  12.3323 347.7893 14.19516934758128
METEOSAT-10 (MSG-3)     
1 38552U 12035B   26165.33231080  .00000000  00000+0  00000+0 0  9992
2 38552   4.6648  61.0321 0001424 327.8422 353.7007  1.00276282 50823
METOP-B                 
1 38771U 12049A   26165.93710233  .00000091  00000+0  61402-4 0  9996
2 38771  98.6505 217.4811 0002371  25.2539 334.8754 14.21432112712942
INSAT-3D                
1 39216U 13038B   26165.85695196 -.00000335  00000+0  00000+0 0  9995
2 39216   1.9201  82.5677 0000546 307.9500 310.6563  1.00270189 47058
FENGYUN 3C              
1 39260U 13052A   26165.92360947  .00000044  00000+0  43201-4 0  9992
2 39260  98.4986 139.9023 0015358  33.8814 326.3338 14.15754551658243
METEOR-M 2              
1 40069U 14037A   26165.96351134  .00000012  00000+0  24534-4 0  9990
2 40069  98.5105 141.7802 0006829  49.9273 310.2503 14.21461150619006
HIMAWARI-8              
1 40267U 14060A   26165.85911863 -.00000270  00000+0  00000+0 0  9999
2 40267   0.0112 330.4245 0000966 116.1411 266.5311  1.00272345 42736
FENGYUN 2G              
1 40367U 14090A   26165.77976201 -.00000301  00000+0  00000+0 0  9996
2 40367   5.6329  72.8457 0003942 155.9654  54.6513  1.00273198 41979
METEOSAT-11 (MSG-4)     
1 40732U 15034A   26165.83315391  .00000068  00000+0  00000+0 0  9994
2 40732   3.1957  71.1241 0001765   9.8531 131.6818  1.00279627  7193
ELEKTRO-L 2             
1 41105U 15074A   26165.04412756 -.00000114  00000+0  00000+0 0  9992
2 41105   6.6845  70.5612 0000704 243.9352 309.2359  1.00270718 38471
SENTINEL-3A             
1 41335U 16011A   26165.90227264  .00000097  00000+0  58013-4 0  9993
2 41335  98.6249 233.3187 0001391 102.3888 257.7448 14.26739379537730
INSAT-3DR               
1 41752U 16054A   26165.84594524 -.00000071  00000+0  00000+0 0  9993
2 41752   0.1003  86.6948 0010636 187.2026   7.7579  1.00270793 35796
HIMAWARI-9              
1 41836U 16064A   26165.85920530 -.00000269  00000+0  00000+0 0  9997
2 41836   0.0508 146.6077 0000807 353.7668 212.8608  1.00269796 35185
GOES 16                 
1 41866U 16071A   26165.66800609 -.00000085  00000+0  00000+0 0  9997
2 41866   0.3347  85.5274 0000200 297.6173  15.6121  1.00270828 35071
FENGYUN 4A              
1 41882U 16077A   26165.92712609 -.00000353  00000+0  00000+0 0  9990
2 41882   2.3158  80.3070 0008709 153.0997 127.3539  1.00269725 34908
CYGFM05                 
1 41884U 16078A   26165.67827459  .00021186  00000+0  28816-3 0  9990
2 41884  34.9575 277.2022 0006760 125.1735 234.9624 15.56575412528360
CYGFM04                 
1 41885U 16078B   26165.59272530  .00027283  00000+0  30860-3 0  9992
2 41885  34.9324 245.5899 0006328 171.1834 188.9003 15.61388565528595
CYGFM02                 
1 41886U 16078C   26165.59836275  .00032073  00000+0  32246-3 0  9998
2 41886  34.9402 240.1637 0007349 172.2814 187.8027 15.64358647528762
CYGFM01                 
1 41887U 16078D   26165.73218906  .00022044  00000+0  29227-3 0  9992
2 41887  34.9404 277.9229 0006580 119.4000 240.7382 15.57251904528321
CYGFM08                 
1 41888U 16078E   26165.95185982  .00026253  00000+0  31413-3 0  9990
2 41888  34.9431 256.1039 0008096 155.9928 204.1175 15.59919693528623
CYGFM07                 
1 41890U 16078G   26165.65516751  .00025184  00000+0  30057-3 0  9997
2 41890  34.9444 246.4236 0006750 170.4422 189.6433 15.60005273528601
CYGFM03                 
1 41891U 16078H   26165.62616195  .00025393  00000+0  30321-3 0  9994
2 41891  34.9400 248.5547 0006142 157.6491 202.4503 15.59996653528577
FENGYUN 3D              
1 43010U 17072A   26165.96264049  .00000006  00000+0  24758-4 0  9990
2 43010  99.0118 140.3443 0002568  66.6413 293.5032 14.19739368444674
NOAA 20 (JPSS-1)        
1 43013U 17073A   26165.88674259  .00000025  00000+0  32820-4 0  9993
2 43013  98.7772 105.3698 0000287  79.3012 280.8197 14.19511293444142
GOES 17                 
1 43226U 18022A   26165.81356216 -.00000177  00000+0  00000+0 0  9996
2 43226   0.9312  85.7532 0000388  33.8569 346.8805  1.00270028 30408
SENTINEL-3B             
1 43437U 18039A   26165.94554834  .00000067  00000+0  45555-4 0  9994
2 43437  98.6250 233.5100 0000741  85.4487 274.6778 14.26734084423802
FENGYUN 2H              
1 43491U 18050A   26165.91828604 -.00000127  00000+0  00000+0 0  9992
2 43491   3.0242  79.0988 0001955 137.2260  96.8890  1.00269812 29411
METOP-C                 
1 43689U 18087A   26165.88603729  .00000094  00000+0  62751-4 0  9994
2 43689  98.6645 225.5317 0001683 132.1889 227.9431 14.21511526394502
GEO-KOMPSAT-2A          
1 43823U 18100A   26165.85669196 -.00000338  00000+0  00000+0 0  9993
2 43823   0.0508 126.1228 0001779 319.5000 254.2045  1.00271625 27600
METEOR-M2 2             
1 44387U 19038A   26165.92654852  .00000130  00000+0  75868-4 0  9999
2 44387  98.9136 153.1780 0002112  52.0733 308.0636 14.24365973360970
ARKTIKA-M 1             
1 47719U 21016A   26160.51571443 -.00000149  00000+0  00000+0 0  9996
2 47719  63.2417  58.7595 7285674 269.8905  14.6803  2.00625436 38630
FENGYUN 3E              
1 49008U 21062A   26165.94675506 -.00000350  00000+0 -14437-3 0  9995
2 49008  98.7486 169.3794 0002839  89.6212 270.5289 14.19902825256269
GOES 18                 
1 51850U 22021A   26165.59031109  .00000103  00000+0  00000+0 0  9996
2 51850   0.0052  51.4023 0000469 114.9043 172.0953  1.00272326  6561
NOAA 21 (JPSS-2)        
1 54234U 22150A   26165.91972790  .00000037  00000+0  38170-4 0  9994
2 54234  98.7060 104.7470 0001521 159.2362 200.8876 14.19565078186226
METEOSAT-12 (MTG-I1)    
1 54743U 22170C   26165.90251142 -.00000003  00000+0  00000+0 0  9991
2 54743   0.7358  22.5965 0003137  71.9362 133.1475  1.00272109 12952
TIANMU-1 03             
1 55973U 23039A   26165.91597478  .00013958  00000+0  27598-3 0  9995
2 55973  97.5222 339.7964 0004274 104.4647 255.7077 15.47228427180488
TIANMU-1 04             
1 55974U 23039B   26165.90632691  .00014603  00000+0  28270-3 0  9998
2 55974  97.5161 338.9398 0004863 101.6106 258.5689 15.47825349180493
TIANMU-1 05             
1 55975U 23039C   26165.96130787  .00014449  00000+0  28630-3 0  9992
2 55975  97.5207 339.4590 0003902 120.0402 240.1235 15.47157760180479
TIANMU-1 06             
1 55976U 23039D   26165.97421749  .00014228  00000+0  27643-3 0  9993
2 55976  97.5213 340.1061 0004318 116.0314 244.1381 15.47731887180506
FENGYUN 3G              
1 56232U 23055A   26165.91824965  .00021878  00000+0  35579-3 0  9994
2 56232  49.9936 357.7127 0006913 287.1930  72.8280 15.52539691179652
METEOR-M2 3             
1 57166U 23091A   26165.99060251  .00000002  00000+0  19491-4 0  9991
2 57166  98.6090 221.0138 0004238 160.9814 199.1524 14.24046602154204
TIANMU-1 07             
1 57399U 23101A   26165.94158844  .00005948  00000+0  20873-3 0  9991
2 57399  97.2593 216.6614 0003989 126.1512 234.0098 15.29785269161304
TIANMU-1 08             
1 57400U 23101B   26165.90823672  .00005820  00000+0  20421-3 0  9996
2 57400  97.2583 216.3998 0005496 120.4275 239.7510 15.29789559161291
TIANMU-1 09             
1 57401U 23101C   26165.95710637  .00006057  00000+0  21225-3 0  9994
2 57401  97.2541 215.8644 0004461 131.7246 228.4377 15.29820587161307
TIANMU-1 10             
1 57402U 23101D   26165.92470559  .00005934  00000+0  20812-3 0  9992
2 57402  97.2621 216.8809 0006030 132.0529 228.1226 15.29791589161290
FENGYUN 3F              
1 57490U 23111A   26165.93072488  .00000056  00000+0  46878-4 0  9991
2 57490  98.6835 235.9814 0001586  94.9569 265.1789 14.19938759148546
ARKTIKA-M 2             
1 58584U 23198A   26160.78386103  .00000212  00000+0  00000+0 0  9997
2 58584  63.2205 155.1874 6900401 267.4353  18.7899  2.00606537 18179
TIANMU-1 11             
1 58645U 23205A   26165.95652381  .00005129  00000+0  19623-3 0  9999
2 58645  97.3442 187.5483 0009240  24.6981 335.4699 15.26975963137182
TIANMU-1 12             
1 58646U 23205B   26165.99236838  .00005448  00000+0  20859-3 0  9996
2 58646  97.3429 187.3397 0006995  11.4462 348.6935 15.26940695137174
TIANMU-1 13             
1 58647U 23205C   26165.95880046  .00005201  00000+0  20016-3 0  9991
2 58647  97.3459 187.5790 0006170 350.4414   9.6707 15.26793680137165
